#aV2010  8 17  0  0   .00000000      96 DD+AD WGS84 FIT  NGA
## 1597 172800.00000000   900.00000000 55425  .0000000000000
+   32     1  2  3  4  5  6  7  8  9 10 11 12 13 14 15 16 17
+         18 19 20 21 22 23 24 25 26 27 28 29 30 31 32  0  0
+          0  0  0  0  0  0  0  0  0  0  0  0  0  0  0  0  0
+          0  0  0  0  0  0  0  0  0  0  0  0  0  0  0  0  0
+          0  0  0  0  0  0  0  0  0  0  0  0  0  0  0  0  0
++         0  0  0  0  0  0  0  0  0  0  0  0  0  0  0  0  0
++         0  0  0  0  0  0  0  0  0  0  0  0  0  0  0  0  0
++         0  0  0  0  0  0  0  0  0  0  0  0  0  0  0  0  0
++         0  0  0  0  0  0  0  0  0  0  0  0  0  0  0  0  0
++         0  0  0  0  0  0  0  0  0  0  0  0  0  0  0  0  0
%c cc cc ccc ccc cccc cccc cccc cccc ccccc ccccc ccccc ccccc
%c cc cc ccc ccc cccc cccc cccc cccc ccccc ccccc ccccc ccccc
%f  0.0000000  0.000000000  0.00000000000  0.000000000000000
%f  0.0000000  0.000000000  0.00000000000  0.000000000000000
%i    0    0    0    0      0      0      0      0         0
%i    0    0    0    0      0      0      0      0         0
/*      NGA, ST. LOUIS,MO.                                  
/*   EPHEMERIS COMPUTED FROM  3 DAYS OF DATA                
/* CCCCCCCCCCCCCCCCCCCCCCCCCCCCCCCCCCCCCCCCCCCCCCCCCCCCCCCCC
/* CCCCCCCCCCCCCCCCCCCCCCCCCCCCCCCCCCCCCCCCCCCCCCCCCCCCCCCCC
*  2010  8 17  8 45   .00000000                                                 
P  1 -19239.550243  -6811.211183 -17181.043715   -152.802115                    
V  1  20252.077968  -7467.931517 -19729.354069      -.039791                    
P  2  14735.977376   5657.413688 -21389.321900    281.462215                    
V  2  -6249.155760  26475.607634   2235.451695       .029076                    
P  3 -23054.299732  -6859.782351  11245.657847    596.075308                    
V  3  -9936.763458 -11411.138981 -26093.303428       .049566                    
P  4   8796.042330  17839.597375 -17606.716810    148.472818                    
V  4  -7548.113089  21007.788978  18050.884048       .084312                    
P  5  25429.579280  -1723.149089  -7647.700470    -25.019033                    
V  5  -8557.396833   5252.688304 -29591.184808      -.042822                    
P  6 -22563.171842 -11663.937306   8222.460202    530.630683                    
V  6  -5589.062889  -9110.257012 -28694.566994      -.149397                    
P  7  -5742.060611  25797.995988   1193.767719     -1.938743                    
V  7  -2912.825762    840.896418 -32085.469018       .000004                    
P  8   1323.443795  22861.025321  12957.217032      6.438651                    
V  8  -6946.145650  15213.743611 -26640.108286       .000043                    
P  9  14151.975453 -15657.224914  15564.427697     24.830215                    
V  9  -2851.602596  20612.013481  22564.185902       .022906                    
P 10  18701.803210   7964.778426 -17459.689890    -49.878743                    
V 10 -20596.543755   7022.092130 -18713.342855      -.009419                    
P 11 -11002.437439  19756.570275  13372.193740    -83.086648                    
V 11  -4043.892381 -17826.979560  22916.420951      -.026075                    
P 12  22072.261555 -11964.408047  -8388.471598    -82.293071                    
V 12  10991.279928   -495.814623  29645.889602       .038630                    
P 13  -1270.031440  17884.034878 -19716.685825    299.566277                    
V 13 -17071.348523 -17835.444441 -15227.837931      -.008074                    
P 14 -15534.520574 -21156.314771   4690.033476     79.317302                    
V 14   5261.848205   2927.661853  31475.737516       .039040                    
P 15  18234.626515  -1708.540684  19296.744571   -222.661559                    
V 15  16948.286008  17673.126832 -14340.149070       .056985                    
P 16 -23537.075871  -2634.888241 -12265.566319    -99.974302                    
V 16  14572.935676  -5597.777840 -26421.176260      -.035050                    
P 17  13645.657615  21604.006835   7748.468558    166.907042                    
V 17  -8502.506520  -5159.236073  29556.382905       .016014                    
P 18   5304.564776 -16718.640740  20132.185592     87.503939                    
V 18  24661.358154  -5012.764063 -11199.325250       .023075                    
P 19 -17818.805356    813.661762  19799.203499    -58.319074                    
V 19 -15750.233973 -19452.544523 -13071.016636      -.030312                    
P 20 -20870.295582  13723.525563  -9081.772881     52.088451                    
V 20 -11865.967506    366.829473  28279.624865      -.003906                    
P 21   3139.095823 -25665.892754   4716.013729    -81.619491                    
V 21   5440.118699  -4452.480440 -30728.055537      -.026768                    
P 22  -8130.623849 -14089.759824  21179.122204    165.132502                    
V 22  25616.653518  -7145.780971   5024.521895      -.007691                    
P 23 -10316.492039  10994.792448 -21876.681907    358.151844                    
V 23 -19874.783088 -19332.976771   -671.210345      -.016922                    
P 24 -13519.390632  -8295.498626  21420.715803    313.571253                    
V 24   8249.512293 -25720.178263  -4523.276349       .031898                    
P 25  13772.151845 -15974.712990 -16174.319661    -33.595201                    
V 25  20163.262852  -4117.208118  21248.276436      -.088605                    
P 26  20485.466422   8869.254730  14147.551328    -99.923004                    
V 26  11546.437350  14803.311187 -24603.625142      -.065813                    
P 27  15465.533325 -10134.157136  19671.468413    180.454505                    
V 27  -3552.372538  23309.900747  15525.569420       .034273                    
P 28   4909.265604  14445.249868  22232.777088     -6.960099                    
V 28 -26255.079310   6440.665366   1367.826335       .013755                    
P 29   1963.641572 -17696.914518 -19635.621276    142.556427                    
V 29  18316.206071  17212.305593 -13580.156952       .027506                    
P 30  11758.843751 -16764.295571 -17301.919643    270.101459                    
V 30  20667.977862  -5074.092808  19463.082257       .032676                    
P 31  -9370.772587 -15510.373262 -19151.764134    -16.566747                    
V 31   7333.797218 -23691.242526  15603.575139       .028538                    
P 32 -25046.537111   7324.205886  -3442.251630    -63.335052                    
V 32  -5352.032154  -2235.793787  31519.403558      -.088549                    
EOF
